CCSDS_OMM_VERS = 2.0
CREATION_DATE  = 
ORIGINATOR     = 

OBJECT_NAME    = COSMOS 2242
OBJECT_ID      = 1993-024A
CENTER_NAME    = EARTH
REF_FRAME      = TEME
TIME_SYSTEM    = UTC
MEAN_ELEMENT_THEORY = SGP/SGP4

EPOCH          = 2026-03-13T21:57:41.814720
MEAN_MOTION    = 14.96567460
ECCENTRICITY   = .00149589
INCLINATION    = 82.5154
RA_OF_ASC_NODE = 262.6739
ARG_OF_PERICENTER = 293.3920
MEAN_ANOMALY   = 66.5728

EPHEMERIS_TYPE = 0
CLASSIFICATION_TYPE = U
NORAD_CAT_ID   = 22626
ELEMENT_SET_NO = 999
REV_AT_EPOCH   = 78102
BSTAR          = .1925484E-3
MEAN_MOTION_DOT = .222E-4
MEAN_MOTION_DDOT = 0

CCSDS_OMM_VERS = 2.0
CREATION_DATE  = 
ORIGINATOR     = 

OBJECT_NAME    = SL-16 R/B
OBJECT_ID      = 1993-059B
CENTER_NAME    = EARTH
REF_FRAME      = TEME
TIME_SYSTEM    = UTC
MEAN_ELEMENT_THEORY = SGP/SGP4

EPOCH          = 2026-03-13T22:09:52.413984
MEAN_MOTION    = 14.17231457
ECCENTRICITY   = .00182908
INCLINATION    = 70.9929
RA_OF_ASC_NODE = 2.1985
ARG_OF_PERICENTER = 210.3056
MEAN_ANOMALY   = 149.7012

EPHEMERIS_TYPE = 0
CLASSIFICATION_TYPE = U
NORAD_CAT_ID   = 22803
ELEMENT_SET_NO = 999
REV_AT_EPOCH   = 68013
BSTAR          = .33446725E-4
MEAN_MOTION_DOT = .2E-6
MEAN_MOTION_DDOT = 0

CCSDS_OMM_VERS = 2.0
CREATION_DATE  = 
ORIGINATOR     = 

OBJECT_NAME    = ARIANE 40 R/B
OBJECT_ID      = 1993-061H
CENTER_NAME    = EARTH
REF_FRAME      = TEME
TIME_SYSTEM    = UTC
MEAN_ELEMENT_THEORY = SGP/SGP4

EPOCH          = 2026-03-13T21:19:17.802336
MEAN_MOTION    = 14.32863354
ECCENTRICITY   = .00095738
INCLINATION    = 98.4908
RA_OF_ASC_NODE = 141.6931
ARG_OF_PERICENTER = 271.2192
MEAN_ANOMALY   = 88.7896

EPHEMERIS_TYPE = 0
CLASSIFICATION_TYPE = U
NORAD_CAT_ID   = 22830
ELEMENT_SET_NO = 999
REV_AT_EPOCH   = 69470
BSTAR          = .95277163E-4
MEAN_MOTION_DOT = .217E-5
MEAN_MOTION_DDOT = 0

CCSDS_OMM_VERS = 2.0
CREATION_DATE  = 
ORIGINATOR     = 

OBJECT_NAME    = COSMOS 2278
OBJECT_ID      = 1994-023A
CENTER_NAME    = EARTH
REF_FRAME      = TEME
TIME_SYSTEM    = UTC
MEAN_ELEMENT_THEORY = SGP/SGP4

EPOCH          = 2026-03-13T06:36:29.130624
MEAN_MOTION    = 14.14379565
ECCENTRICITY   = .00083165
INCLINATION    = 71.0551
RA_OF_ASC_NODE = 167.5967
ARG_OF_PERICENTER = 6.5779
MEAN_ANOMALY   = 353.5451

EPHEMERIS_TYPE = 0
CLASSIFICATION_TYPE = U
NORAD_CAT_ID   = 23087
ELEMENT_SET_NO = 999
REV_AT_EPOCH   = 64531
BSTAR          = .7714367E-5
MEAN_MOTION_DOT = -.32E-6
MEAN_MOTION_DDOT = 0

CCSDS_OMM_VERS = 2.0
CREATION_DATE  = 
ORIGINATOR     = 

OBJECT_NAME    = SL-16 R/B
OBJECT_ID      = 1994-023B
CENTER_NAME    = EARTH
REF_FRAME      = TEME
TIME_SYSTEM    = UTC
MEAN_ELEMENT_THEORY = SGP/SGP4

EPOCH          = 2026-03-13T22:57:14.790816
MEAN_MOTION    = 14.15010486
ECCENTRICITY   = .00056612
INCLINATION    = 70.9984
RA_OF_ASC_NODE = 61.9248
ARG_OF_PERICENTER = 281.3931
MEAN_ANOMALY   = 78.6555

EPHEMERIS_TYPE = 0
CLASSIFICATION_TYPE = U
NORAD_CAT_ID   = 23088
ELEMENT_SET_NO = 999
REV_AT_EPOCH   = 64669
BSTAR          = -.71220118E-4
MEAN_MOTION_DOT = -.186E-5
MEAN_MOTION_DDOT = 0

CCSDS_OMM_VERS = 2.0
CREATION_DATE  = 
ORIGINATOR     = 

OBJECT_NAME    = SL-16 R/B
OBJECT_ID      = 1994-074B
CENTER_NAME    = EARTH
REF_FRAME      = TEME
TIME_SYSTEM    = UTC
MEAN_ELEMENT_THEORY = SGP/SGP4

EPOCH          = 2026-03-13T23:40:57.123264
MEAN_MOTION    = 14.79413417
ECCENTRICITY   = .00060912
INCLINATION    = 97.7103
RA_OF_ASC_NODE = 103.6305
ARG_OF_PERICENTER = 195.0236
MEAN_ANOMALY   = 225.7884

EPHEMERIS_TYPE = 0
CLASSIFICATION_TYPE = U
NORAD_CAT_ID   = 23343
ELEMENT_SET_NO = 999
REV_AT_EPOCH   = 68788
BSTAR          = .77823647E-4
MEAN_MOTION_DOT = .531E-5
MEAN_MOTION_DDOT = 0

CCSDS_OMM_VERS = 2.0
CREATION_DATE  = 
ORIGINATOR     = 

OBJECT_NAME    = SL-16 R/B
OBJECT_ID      = 1994-077B
CENTER_NAME    = EARTH
REF_FRAME      = TEME
TIME_SYSTEM    = UTC
MEAN_ELEMENT_THEORY = SGP/SGP4

EPOCH          = 2026-03-13T22:28:24.283488
MEAN_MOTION    = 14.15562299
ECCENTRICITY   = .0002856
INCLINATION    = 70.9852
RA_OF_ASC_NODE = 343.5559
ARG_OF_PERICENTER = 206.7335
MEAN_ANOMALY   = 153.3641

EPHEMERIS_TYPE = 0
CLASSIFICATION_TYPE = U
NORAD_CAT_ID   = 23405
ELEMENT_SET_NO = 999
REV_AT_EPOCH   = 61683
BSTAR          = .12154018E-3
MEAN_MOTION_DOT = .19E-5
MEAN_MOTION_DDOT = 0

CCSDS_OMM_VERS = 2.0
CREATION_DATE  = 
ORIGINATOR     = 

OBJECT_NAME    = ARIANE 40+ R/B
OBJECT_ID      = 1995-021B
CENTER_NAME    = EARTH
REF_FRAME      = TEME
TIME_SYSTEM    = UTC
MEAN_ELEMENT_THEORY = SGP/SGP4

EPOCH          = 2026-03-13T22:31:43.977216
MEAN_MOTION    = 14.39775823
ECCENTRICITY   = .00078004
INCLINATION    = 98.4490
RA_OF_ASC_NODE = 144.3637
ARG_OF_PERICENTER = 125.2258
MEAN_ANOMALY   = 48.0723

EPHEMERIS_TYPE = 0
CLASSIFICATION_TYPE = U
NORAD_CAT_ID   = 23561
ELEMENT_SET_NO = 999
REV_AT_EPOCH   = 61985
BSTAR          = .11551567E-3
MEAN_MOTION_DOT = .319E-5
MEAN_MOTION_DDOT = 0

CCSDS_OMM_VERS = 2.0
CREATION_DATE  = 
ORIGINATOR     = 

OBJECT_NAME    = SL-16 R/B
OBJECT_ID      = 1995-058B
CENTER_NAME    = EARTH
REF_FRAME      = TEME
TIME_SYSTEM    = UTC
MEAN_ELEMENT_THEORY = SGP/SGP4

EPOCH          = 2026-03-13T17:33:29.157408
MEAN_MOTION    = 14.15498196
ECCENTRICITY   = .0010649
INCLINATION    = 71.0225
RA_OF_ASC_NODE = 171.7697
ARG_OF_PERICENTER = 118.5576
MEAN_ANOMALY   = 241.6620

EPHEMERIS_TYPE = 0
CLASSIFICATION_TYPE = U
NORAD_CAT_ID   = 23705
ELEMENT_SET_NO = 999
REV_AT_EPOCH   = 56842
BSTAR          = .17788717E-3
MEAN_MOTION_DOT = .3E-5
MEAN_MOTION_DDOT = 0

CCSDS_OMM_VERS = 2.0
CREATION_DATE  = 
ORIGINATOR     = 

OBJECT_NAME    = SL-16 R/B
OBJECT_ID      = 1996-051B
CENTER_NAME    = EARTH
REF_FRAME      = TEME
TIME_SYSTEM    = UTC
MEAN_ELEMENT_THEORY = SGP/SGP4

EPOCH          = 2026-03-13T16:58:10.130016
MEAN_MOTION    = 14.12416894
ECCENTRICITY   = .00147298
INCLINATION    = 70.7603
RA_OF_ASC_NODE = 166.7361
ARG_OF_PERICENTER = 141.8931
MEAN_ANOMALY   = 218.3233

EPHEMERIS_TYPE = 0
CLASSIFICATION_TYPE = U
NORAD_CAT_ID   = 24298
ELEMENT_SET_NO = 999
REV_AT_EPOCH   = 52221
BSTAR          = .76164401E-4
MEAN_MOTION_DOT = .92E-6
MEAN_MOTION_DDOT = 0

CCSDS_OMM_VERS = 2.0
CREATION_DATE  = 
ORIGINATOR     = 

OBJECT_NAME    = ORBVIEW 2 (SEASTAR)
OBJECT_ID      = 1997-037A
CENTER_NAME    = EARTH
REF_FRAME      = TEME
TIME_SYSTEM    = UTC
MEAN_ELEMENT_THEORY = SGP/SGP4

EPOCH          = 2026-03-13T22:45:52.080480
MEAN_MOTION    = 14.35498387
ECCENTRICITY   = .00029806
INCLINATION    = 98.8575
RA_OF_ASC_NODE = 237.3733
ARG_OF_PERICENTER = 63.2058
MEAN_ANOMALY   = 296.9431

EPHEMERIS_TYPE = 0
CLASSIFICATION_TYPE = U
NORAD_CAT_ID   = 24883
ELEMENT_SET_NO = 999
REV_AT_EPOCH   = 50908
BSTAR          = .13194734E-3
MEAN_MOTION_DOT = .333E-5
MEAN_MOTION_DDOT = 0

CCSDS_OMM_VERS = 2.0
CREATION_DATE  = 
ORIGINATOR     = 

OBJECT_NAME    = SL-16 R/B
OBJECT_ID      = 1998-043G
CENTER_NAME    = EARTH
REF_FRAME      = TEME
TIME_SYSTEM    = UTC
MEAN_ELEMENT_THEORY = SGP/SGP4

EPOCH          = 2026-03-13T07:26:17.715264
MEAN_MOTION    = 14.26050761
ECCENTRICITY   = .00100368
INCLINATION    = 98.8258
RA_OF_ASC_NODE = 25.6990
ARG_OF_PERICENTER = 10.3984
MEAN_ANOMALY   = 349.7401

EPHEMERIS_TYPE = 0
CLASSIFICATION_TYPE = U
NORAD_CAT_ID   = 25400
ELEMENT_SET_NO = 999
REV_AT_EPOCH   = 43950
BSTAR          = .53558091E-4
MEAN_MOTION_DOT = .83E-6
MEAN_MOTION_DDOT = 0

